{"type": "FeatureCollection", "features": [{"type": "Feature", "properties": {"norad_id": 24946, "name": "IRIDIUM 33", "group": "iridium-33-debris", "lat": -64.29971075453562, "lon": 57.65271565208773, "alt_km": 784.9861686824643, "timestamp": "2025-12-19T22:41:52.780335+00:00", "meta": {"OBJECT_NAME": "IRIDIUM 33", "OBJECT_ID": "1997-051C", "EPOCH": "2025-12-19T11:17:03.474240", "MEAN_MOTION": 14.35041894, "ECCENTRICITY": 0.0007833, "INCLINATION": 86.3867, "RA_OF_ASC_NODE": 65.3967, "ARG_OF_PERICENTER": 177.5382, "MEAN_ANOMALY": 182.5855, "EPHEMERIS_TYPE": 0, "CLASSIFICATION_TYPE": "U", "NORAD_CAT_ID": 24946, "ELEMENT_SET_NO": 999, "REV_AT_EPOCH": 47931, "BSTAR": 8.767e-05, "MEAN_MOTION_DOT": 2.7e-06, "MEAN_MOTION_DDOT": 0}, "tle": {"line1": "1 24946U 97051C   25353.47017910  .00000270  00000+0  87670-4 0  9994", "line2": "2 24946  86.3867  65.3967 0007833 177.5382 182.5855 14.35041894479312"}}, "geometry": {"type": "Point", "coordinates": [57.65271565208773, -64.29971075453562]}}, {"type": "Feature", "properties": {"norad_id": 33773, "name": "IRIDIUM 33 DEB", "group": "iridium-33-debris", "lat": 74.12162379321727, "lon": -135.24943833344466, "alt_km": 731.9989821750605, "timestamp": "2025-12-19T22:41:52.780374+00:00", "meta": {"OBJECT_NAME": "IRIDIUM 33 DEB", "OBJECT_ID": "1997-051L", "EPOCH": "2025-12-19T05:34:19.132032", "MEAN_MOTION": 14.43270063, "ECCENTRICITY": 0.0013004, "INCLINATION": 86.4004, "RA_OF_ASC_NODE": 57.8383, "ARG_OF_PERICENTER": 127.5412, "MEAN_ANOMALY": 232.6973, "EPHEMERIS_TYPE": 0, "CLASSIFICATION_TYPE": "U", "NORAD_CAT_ID": 33773, "ELEMENT_SET_NO": 999, "REV_AT_EPOCH": 88441, "BSTAR": 0.00021423, "MEAN_MOTION_DOT": 7.42e-06, "MEAN_MOTION_DDOT": 0}, "tle": {"line1": "1 33773U 97051L   25353.23216588  .00000742  00000+0  21423-3 0  9995", "line2": "2 33773  86.4004  57.8383 0013004 127.5412 232.6973 14.43270063884418"}}, "geometry": {"type": "Point", "coordinates": [-135.24943833344466, 74.12162379321727]}}, {"type": "Feature", "properties": {"norad_id": 33775, "name": "IRIDIUM 33 DEB", "group": "iridium-33-debris", "lat": 37.112256893189894, "lon": -136.28136588156073, "alt_km": 740.5312794280344, "timestamp": "2025-12-19T22:41:52.780390+00:00", "meta": {"OBJECT_NAME": "IRIDIUM 33 DEB", "OBJECT_ID": "1997-051N", "EPOCH": "2025-12-19T10:26:40.324416", "MEAN_MOTION": 14.41481891, "ECCENTRICITY": 0.0014937, "INCLINATION": 86.363, "RA_OF_ASC_NODE": 46.695, "ARG_OF_PERICENTER": 134.5143, "MEAN_ANOMALY": 240.3802, "EPHEMERIS_TYPE": 0, "CLASSIFICATION_TYPE": "U", "NORAD_CAT_ID": 33775, "ELEMENT_SET_NO": 999, "REV_AT_EPOCH": 88237, "BSTAR": 0.00022664, "MEAN_MOTION_DOT": 7.56e-06, "MEAN_MOTION_DDOT": 0}, "tle": {"line1": "1 33775U 97051N   25353.43518894  .00000756  00000+0  22664-3 0  9997", "line2": "2 33775  86.3630  46.6950 0014937 134.5143 240.3802 14.41481891882376"}}, "geometry": {"type": "Point", "coordinates": [-136.28136588156073, 37.112256893189894]}}, {"type": "Feature", "properties": {"norad_id": 33776, "name": "IRIDIUM 33 DEB", "group": "iridium-33-debris", "lat": -70.99571764656291, "lon": 67.22786781996102, "alt_km": 777.3344940843081, "timestamp": "2025-12-19T22:41:52.780403+00:00", "meta": {"OBJECT_NAME": "IRIDIUM 33 DEB", "OBJECT_ID": "1997-051P", "EPOCH": "2025-12-19T11:23:30.764832", "MEAN_MOTION": 14.38246315, "ECCENTRICITY": 0.0015133, "INCLINATION": 86.4035, "RA_OF_ASC_NODE": 77.9477, "ARG_OF_PERICENTER": 168.6417, "MEAN_ANOMALY": 202.3256, "EPHEMERIS_TYPE": 0, "CLASSIFICATION_TYPE": "U", "NORAD_CAT_ID": 33776, "ELEMENT_SET_NO": 999, "REV_AT_EPOCH": 88179, "BSTAR": 0.00020186, "MEAN_MOTION_DOT": 6.34e-06, "MEAN_MOTION_DDOT": 0}, "tle": {"line1": "1 33776U 97051P   25353.47466163  .00000634  00000+0  20186-3 0  9995", "line2": "2 33776  86.4035  77.9477 0015133 168.6417 202.3256 14.38246315881791"}}, "geometry": {"type": "Point", "coordinates": [67.22786781996102, -70.99571764656291]}}, {"type": "Feature", "properties": {"norad_id": 33777, "name": "IRIDIUM 33 DEB", "group": "iridium-33-debris", "lat": 12.948396006890073, "lon": -148.7655516160961, "alt_km": 705.9462887732525, "timestamp": "2025-12-19T22:41:52.780416+00:00", "meta": {"OBJECT_NAME": "IRIDIUM 33 DEB", "OBJECT_ID": "1997-051Q", "EPOCH": "2025-12-19T03:47:07.455552", "MEAN_MOTION": 14.5565724, "ECCENTRICITY": 0.00056471, "INCLINATION": 86.3778, "RA_OF_ASC_NODE": 32.4117, "ARG_OF_PERICENTER": 220.5643, "MEAN_ANOMALY": 139.5144, "EPHEMERIS_TYPE": 0, "CLASSIFICATION_TYPE": "U", "NORAD_CAT_ID": 33777, "ELEMENT_SET_NO": 999, "REV_AT_EPOCH": 88627, "BSTAR": 0.00061273741, "MEAN_MOTION_DOT": 2.696e-05, "MEAN_MOTION_DDOT": 0}, "tle": {"line1": "1 33777U 97051Q   25353.15772518  .00002696  00000+0  61274-3 0  9998", "line2": "2 33777  86.3778  32.4117 0005647 220.5643 139.5144 14.55657240886277"}}, "geometry": {"type": "Point", "coordinates": [-148.7655516160961, 12.948396006890073]}}, {"type": "Feature", "properties": {"norad_id": 33850, "name": "IRIDIUM 33 DEB", "group": "iridium-33-debris", "lat": 38.66436478227074, "lon": -155.85361210182, "alt_km": 739.3841287962059, "timestamp": "2025-12-19T22:41:52.780429+00:00", "meta": {"OBJECT_NAME": "IRIDIUM 33 DEB", "OBJECT_ID": "1997-051T", "EPOCH": "2025-12-19T12:36:52.017120", "MEAN_MOTION": 14.42160787, "ECCENTRICITY": 0.001286, "INCLINATION": 86.3412, "RA_OF_ASC_NODE": 27.2617, "ARG_OF_PERICENTER": 140.6772, "MEAN_ANOMALY": 340.5456, "EPHEMERIS_TYPE": 0, "CLASSIFICATION_TYPE": "U", "NORAD_CAT_ID": 33850, "ELEMENT_SET_NO": 999, "REV_AT_EPOCH": 88250, "BSTAR": 0.00026229, "MEAN_MOTION_DOT": 8.83e-06, "MEAN_MOTION_DDOT": 0}, "tle": {"line1": "1 33850U 97051T   25353.52560205  .00000883  00000+0  26229-3 0  9996", "line2": "2 33850  86.3412  27.2617 0012860 140.6772 340.5456 14.42160787882504"}}, "geometry": {"type": "Point", "coordinates": [-155.85361210182, 38.66436478227074]}}, {"type": "Feature", "properties": {"norad_id": 33853, "name": "IRIDIUM 33 DEB", "group": "iridium-33-debris", "lat": 53.57198798595491, "lon": 161.2103280073245, "alt_km": 881.9776970582516, "timestamp": "2025-12-19T22:41:52.780442+00:00", "meta": {"OBJECT_NAME": "IRIDIUM 33 DEB", "OBJECT_ID": "1997-051W", "EPOCH": "2025-12-19T17:47:37.723776", "MEAN_MOTION": 13.99098623, "ECCENTRICITY": 0.0207211, "INCLINATION": 85.9997, "RA_OF_ASC_NODE": 346.7406, "ARG_OF_PERICENTER": 214.1992, "MEAN_ANOMALY": 325.7563, "EPHEMERIS_TYPE": 0, "CLASSIFICATION_TYPE": "U", "NORAD_CAT_ID": 33853, "ELEMENT_SET_NO": 999, "REV_AT_EPOCH": 85443, "BSTAR": 0.0011335, "MEAN_MOTION_DOT": 1.989e-05, "MEAN_MOTION_DDOT": 0}, "tle": {"line1": "1 33853U 97051W   25353.74140884  .00001989  00000+0  11335-2 0  9999", "line2": "2 33853  85.9997 346.7406 0207211 214.1992 325.7563 13.99098623854437"}}, "geometry": {"type": "Point", "coordinates": [161.2103280073245, 53.57198798595491]}}, {"type": "Feature", "properties": {"norad_id": 33860, "name": "IRIDIUM 33 DEB", "group": "iridium-33-debris", "lat": 9.202837313891466, "lon": 24.635785078123785, "alt_km": 667.4035199576574, "timestamp": "2025-12-19T22:41:52.780468+00:00", "meta": {"OBJECT_NAME": "IRIDIUM 33 DEB", "OBJECT_ID": "1997-051AD", "EPOCH": "2025-12-19T13:32:43.473120", "MEAN_MOTION": 14.67445483, "ECCENTRICITY": 0.0006592, "INCLINATION": 86.3824, "RA_OF_ASC_NODE": 24.2173, "ARG_OF_PERICENTER": 332.2396, "MEAN_ANOMALY": 183.725, "EPHEMERIS_TYPE": 0, "CLASSIFICATION_TYPE": "U", "NORAD_CAT_ID": 33860, "ELEMENT_SET_NO": 999, "REV_AT_EPOCH": 88822, "BSTAR": 0.0007628, "MEAN_MOTION_DOT": 4.339e-05, "MEAN_MOTION_DDOT": 0}, "tle": {"line1": "1 33860U 97051AD  25353.56439205  .00004339  00000+0  76280-3 0  9998", "line2": "2 33860  86.3824  24.2173 0006592 332.2396 183.7250 14.67445483888222"}}, "geometry": {"type": "Point", "coordinates": [24.635785078123785, 9.202837313891466]}}, {"type": "Feature", "properties": {"norad_id": 33862, "name": "IRIDIUM 33 DEB", "group": "iridium-33-debris", "lat": 79.33348427159615, "lon": -165.1263934772578, "alt_km": 633.6943846996028, "timestamp": "2025-12-19T22:41:52.780482+00:00", "meta": {"OBJECT_NAME": "IRIDIUM 33 DEB", "OBJECT_ID": "1997-051AF", "EPOCH": "2025-12-19T04:34:26.830848", "MEAN_MOTION": 14.69572736, "ECCENTRICITY": 0.0052829, "INCLINATION": 86.4085, "RA_OF_ASC_NODE": 34.686, "ARG_OF_PERICENTER": 47.5905, "MEAN_ANOMALY": 19.3889, "EPHEMERIS_TYPE": 0, "CLASSIFICATION_TYPE": "U", "NORAD_CAT_ID": 33862, "ELEMENT_SET_NO": 999, "REV_AT_EPOCH": 88918, "BSTAR": 0.00095208, "MEAN_MOTION_DOT": 5.8e-05, "MEAN_MOTION_DDOT": 0}, "tle": {"line1": "1 33862U 97051AF  25353.19058832  .00005800  00000+0  95208-3 0  9997", "line2": "2 33862  86.4085  34.6860 0052829  47.5905  19.3889 14.69572736889180"}}, "geometry": {"type": "Point", "coordinates": [-165.1263934772578, 79.33348427159615]}}, {"type": "Feature", "properties": {"norad_id": 33866, "name": "IRIDIUM 33 DEB", "group": "iridium-33-debris", "lat": 81.37682706632812, "lon": -115.27109351770726, "alt_km": 737.1764630730613, "timestamp": "2025-12-19T22:41:52.780495+00:00", "meta": {"OBJECT_NAME": "IRIDIUM 33 DEB", "OBJECT_ID": "1997-051AK", "EPOCH": "2025-12-19T17:53:32.660160", "MEAN_MOTION": 14.25294618, "ECCENTRICITY": 0.0114933, "INCLINATION": 86.3, "RA_OF_ASC_NODE": 90.0718, "ARG_OF_PERICENTER": 139.1781, "MEAN_ANOMALY": 12.6912, "EPHEMERIS_TYPE": 0, "CLASSIFICATION_TYPE": "U", "NORAD_CAT_ID": 33866, "ELEMENT_SET_NO": 999, "REV_AT_EPOCH": 86910, "BSTAR": 0.00039483, "MEAN_MOTION_DOT": 1.015e-05, "MEAN_MOTION_DDOT": 0}, "tle": {"line1": "1 33866U 97051AK  25353.74551690  .00001015  00000+0  39483-3 0  9999", "line2": "2 33866  86.3000  90.0718 0114933 139.1781  12.6912 14.25294618869108"}}, "geometry": {"type": "Point", "coordinates": [-115.27109351770726, 81.37682706632812]}}]}